PROGRESS-MS 34          
1 68837U 26093A   26186.44376576  .00008907  00000+0  17013-3 0  9995
2 68837  51.6303 209.7275 0006727 258.7638 101.2595 15.48905966698059
TIANZHOU-10             
1 69049U 26102A   26186.40762876  .00017688  00000+0  23331-3 0  9996
2 69049  41.4675 211.1531 0002960 269.5720  90.4778 15.57983193295999
SHENZHOU-23 (SZ-23)     
1 69180U 26113A   26186.47173112  .00017207  00000+0  22709-3 0  9995
2 69180  41.4674 210.7645 0002946 269.5009  90.5491 15.57984335296150
